[{"OBJECT_NAME":"CUTE-1 (CO-55)","OBJECT_ID":"2003-031E","EPOCH":"2026-03-02T12:55:39.721152","MEAN_MOTION":14.24259043,"ECCENTRICITY":0.0010451,"INCLINATION":98.6778,"RA_OF_ASC_NODE":71.4263,"ARG_OF_PERICENTER":131.1798,"MEAN_ANOMALY":229.0284,"EPHEMERIS_TYPE":0,"CLASSIFICATION_TYPE":"U","NORAD_CAT_ID":27844,"ELEMENT_SET_NO":999,"REV_AT_EPOCH":17649,"BSTAR":0.00020177,"MEAN_MOTION_DOT":4.22e-6,"MEAN_MOTION_DDOT":0},{"OBJECT_NAME":"CUBESAT XI-IV (CO-57)","OBJECT_ID":"2003-031J","EPOCH":"2026-03-02T11:22:31.020960","MEAN_MOTION":14.23555341,"ECCENTRICITY":0.00100734,"INCLINATION":98.6809,"RA_OF_ASC_NODE":71.1608,"ARG_OF_PERICENTER":147.897,"MEAN_ANOMALY":212.2824,"EPHEMERIS_TYPE":0,"CLASSIFICATION_TYPE":"U","NORAD_CAT_ID":27848,"ELEMENT_SET_NO":999,"REV_AT_EPOCH":17619,"BSTAR":0.00018145278,"MEAN_MOTION_DOT":3.7e-6,"MEAN_MOTION_DDOT":0},{"OBJECT_NAME":"CUBESAT XI-V","OBJECT_ID":"2005-043F","EPOCH":"2026-03-02T15:32:54.075840","MEAN_MOTION":14.72280863,"ECCENTRICITY":0.0014355,"INCLINATION":98.2814,"RA_OF_ASC_NODE":215.1395,"ARG_OF_PERICENTER":179.3571,"MEAN_ANOMALY":180.7656,"EPHEMERIS_TYPE":0,"CLASSIFICATION_TYPE":"U","NORAD_CAT_ID":28895,"ELEMENT_SET_NO":999,"REV_AT_EPOCH":8607,"BSTAR":0.00040907,"MEAN_MOTION_DOT":2.536e-5,"MEAN_MOTION_DDOT":0},{"OBJECT_NAME":"CUTE-1.7+APD II (CO-65)","OBJECT_ID":"2008-021C","EPOCH":"2026-03-02T21:07:51.599712","MEAN_MOTION":15.08251734,"ECCENTRICITY":0.0010318,"INCLINATION":97.8192,"RA_OF_ASC_NODE":41.2304,"ARG_OF_PERICENTER":39.48,"MEAN_ANOMALY":320.7177,"EPHEMERIS_TYPE":0,"CLASSIFICATION_TYPE":"U","NORAD_CAT_ID":32785,"ELEMENT_SET_NO":999,"REV_AT_EPOCH":96916,"BSTAR":0.00058977,"MEAN_MOTION_DOT":9.086e-5,"MEAN_MOTION_DDOT":0},{"OBJECT_NAME":"CANX-2","OBJECT_ID":"2008-021H","EPOCH":"2026-03-02T18:59:35.183616","MEAN_MOTION":15.04705248,"ECCENTRICITY":0.0012266,"INCLINATION":97.8552,"RA_OF_ASC_NODE":39.6273,"ARG_OF_PERICENTER":51.2149,"MEAN_ANOMALY":309.017,"EPHEMERIS_TYPE":0,"CLASSIFICATION_TYPE":"U","NORAD_CAT_ID":32790,"ELEMENT_SET_NO":999,"REV_AT_EPOCH":96880,"BSTAR":0.0004522,"MEAN_MOTION_DOT":6.314e-5,"MEAN_MOTION_DDOT":0},{"OBJECT_NAME":"SEEDS II (CO-66)","OBJECT_ID":"2008-021J","EPOCH":"2026-03-02T12:36:38.136096","MEAN_MOTION":15.28701509,"ECCENTRICITY":0.000273,"INCLINATION":97.7503,"RA_OF_ASC_NODE":54.6595,"ARG_OF_PERICENTER":20.6846,"MEAN_ANOMALY":339.4503,"EPHEMERIS_TYPE":0,"CLASSIFICATION_TYPE":"U","NORAD_CAT_ID":32791,"ELEMENT_SET_NO":999,"REV_AT_EPOCH":97097,"BSTAR":0.00082362,"MEAN_MOTION_DOT":0.00022953,"MEAN_MOTION_DDOT":0},{"OBJECT_NAME":"SWISSCUBE","OBJECT_ID":"2009-051B","EPOCH":"2026-03-02T16:52:27.942816","MEAN_MOTION":14.62235995,"ECCENTRICITY":0.0006594,"INCLINATION":98.4106,"RA_OF_ASC_NODE":327.722,"ARG_OF_PERICENTER":173.5794,"MEAN_ANOMALY":186.5492,"EPHEMERIS_TYPE":0,"CLASSIFICATION_TYPE":"U","NORAD_CAT_ID":35932,"ELEMENT_SET_NO":999,"REV_AT_EPOCH":87359,"BSTAR":0.00031106,"MEAN_MOTION_DOT":1.519e-5,"MEAN_MOTION_DDOT":0},{"OBJECT_NAME":"BEESAT-1","OBJECT_ID":"2009-051C","EPOCH":"2026-03-02T17:26:39.028704","MEAN_MOTION":14.61513291,"ECCENTRICITY":0.0004825,"INCLINATION":98.4036,"RA_OF_ASC_NODE":327.6002,"ARG_OF_PERICENTER":184.8887,"MEAN_ANOMALY":175.2267,"EPHEMERIS_TYPE":0,"CLASSIFICATION_TYPE":"U","NORAD_CAT_ID":35933,"ELEMENT_SET_NO":999,"REV_AT_EPOCH":87363,"BSTAR":0.00026627,"MEAN_MOTION_DOT":1.272e-5,"MEAN_MOTION_DDOT":0},{"OBJECT_NAME":"ITUPSAT1","OBJECT_ID":"2009-051E","EPOCH":"2026-03-02T16:38:44.376288","MEAN_MOTION":14.60249665,"ECCENTRICITY":0.0006783,"INCLINATION":98.4125,"RA_OF_ASC_NODE":326.868,"ARG_OF_PERICENTER":200.9387,"MEAN_ANOMALY":159.1536,"EPHEMERIS_TYPE":0,"CLASSIFICATION_TYPE":"U","NORAD_CAT_ID":35935,"ELEMENT_SET_NO":999,"REV_AT_EPOCH":87319,"BSTAR":0.00024857,"MEAN_MOTION_DOT":1.151e-5,"MEAN_MOTION_DDOT":0},{"OBJECT_NAME":"TISAT 1","OBJECT_ID":"2010-035E","EPOCH":"2026-03-02T19:30:32.106240","MEAN_MOTION":15.27224236,"ECCENTRICITY":1.8e-5,"INCLINATION":98.0646,"RA_OF_ASC_NODE":359.347,"ARG_OF_PERICENTER":143.8613,"MEAN_ANOMALY":216.2636,"EPHEMERIS_TYPE":0,"CLASSIFICATION_TYPE":"U","NORAD_CAT_ID":36799,"ELEMENT_SET_NO":999,"REV_AT_EPOCH":85144,"BSTAR":0.00096804,"MEAN_MOTION_DOT":0.0002581,"MEAN_MOTION_DDOT":0},{"OBJECT_NAME":"AEROCUBE 4.5A","OBJECT_ID":"2012-048K","EPOCH":"2026-03-02T08:34:29.296128","MEAN_MOTION":15.60456493,"ECCENTRICITY":0.00420073,"INCLINATION":64.6373,"RA_OF_ASC_NODE":45.5569,"ARG_OF_PERICENTER":214.483,"MEAN_ANOMALY":145.3589,"EPHEMERIS_TYPE":0,"CLASSIFICATION_TYPE":"U","NORAD_CAT_ID":38767,"ELEMENT_SET_NO":999,"REV_AT_EPOCH":35584,"BSTAR":0.001049335,"MEAN_MOTION_DOT":0.00091421,"MEAN_MOTION_DDOT":0},{"OBJECT_NAME":"STRAND-1","OBJECT_ID":"2013-009E","EPOCH":"2026-03-02T11:06:07.129728","MEAN_MOTION":14.370872,"ECCENTRICITY":0.00086048,"INCLINATION":98.388,"RA_OF_ASC_NODE":244.3341,"ARG_OF_PERICENTER":182.8724,"MEAN_ANOMALY":177.2415,"EPHEMERIS_TYPE":0,"CLASSIFICATION_TYPE":"U","NORAD_CAT_ID":39090,"ELEMENT_SET_NO":999,"REV_AT_EPOCH":68173,"BSTAR":0.00017107477,"MEAN_MOTION_DOT":4.65e-6,"MEAN_MOTION_DDOT":0},{"OBJECT_NAME":"BRITE-AUSTRIA","OBJECT_ID":"2013-009F","EPOCH":"2026-03-02T11:59:46.340160","MEAN_MOTION":14.36491012,"ECCENTRICITY":0.00099324,"INCLINATION":98.3949,"RA_OF_ASC_NODE":243.5873,"ARG_OF_PERICENTER":192.5436,"MEAN_ANOMALY":167.5505,"EPHEMERIS_TYPE":0,"CLASSIFICATION_TYPE":"U","NORAD_CAT_ID":39091,"ELEMENT_SET_NO":999,"REV_AT_EPOCH":68173,"BSTAR":0.00011565207,"MEAN_MOTION_DOT":2.97e-6,"MEAN_MOTION_DDOT":0},{"OBJECT_NAME":"NEE-01 PEGASO","OBJECT_ID":"2013-018B","EPOCH":"2026-03-02T19:08:12.754176","MEAN_MOTION":14.93024457,"ECCENTRICITY":0.0013546,"INCLINATION":98.1033,"RA_OF_ASC_NODE":202.5812,"ARG_OF_PERICENTER":150.7424,"MEAN_ANOMALY":209.4556,"EPHEMERIS_TYPE":0,"CLASSIFICATION_TYPE":"U","NORAD_CAT_ID":39151,"ELEMENT_SET_NO":999,"REV_AT_EPOCH":69482,"BSTAR":0.00050096,"MEAN_MOTION_DOT":5.16e-5,"MEAN_MOTION_DDOT":0},{"OBJECT_NAME":"POPACS 2","OBJECT_ID":"2013-055E","EPOCH":"2026-03-02T13:56:44.509344","MEAN_MOTION":14.87367632,"ECCENTRICITY":0.0432087,"INCLINATION":80.9893,"RA_OF_ASC_NODE":265.9279,"ARG_OF_PERICENTER":175.5361,"MEAN_ANOMALY":184.9919,"EPHEMERIS_TYPE":0,"CLASSIFICATION_TYPE":"U","NORAD_CAT_ID":39269,"ELEMENT_SET_NO":999,"REV_AT_EPOCH":64734,"BSTAR":0.0004869,"MEAN_MOTION_DOT":0.00027795,"MEAN_MOTION_DDOT":0},{"OBJECT_NAME":"POPACS 3","OBJECT_ID":"2013-055F","EPOCH":"2026-03-02T05:56:32.646048","MEAN_MOTION":14.53690183,"ECCENTRICITY":0.05616889,"INCLINATION":81.0063,"RA_OF_ASC_NODE":344.9571,"ARG_OF_PERICENTER":35.2955,"MEAN_ANOMALY":328.41,"EPHEMERIS_TYPE":0,"CLASSIFICATION_TYPE":"U","NORAD_CAT_ID":39270,"ELEMENT_SET_NO":999,"REV_AT_EPOCH":62300,"BSTAR":0.00044170734,"MEAN_MOTION_DOT":0.00018351,"MEAN_MOTION_DDOT":0},{"OBJECT_NAME":"ZACUBE-1 (TSHEPISOSAT)","OBJECT_ID":"2013-066B","EPOCH":"2026-03-02T20:39:01.797408","MEAN_MOTION":15.00236927,"ECCENTRICITY":0.0041555,"INCLINATION":97.8182,"RA_OF_ASC_NODE":23.6506,"ARG_OF_PERICENTER":243.0931,"MEAN_ANOMALY":116.6044,"EPHEMERIS_TYPE":0,"CLASSIFICATION_TYPE":"U","NORAD_CAT_ID":39417,"ELEMENT_SET_NO":999,"REV_AT_EPOCH":66478,"BSTAR":0.0004838,"MEAN_MOTION_DOT":6.102e-5,"MEAN_MOTION_DDOT":0}]
